CCSDS_OMM_VERS = 2.0
CREATION_DATE  = 
ORIGINATOR     = 

OBJECT_NAME    = DELTA 2 R/B(1)
OBJECT_ID      = 1990-008B
CENTER_NAME    = EARTH
REF_FRAME      = TEME
TIME_SYSTEM    = UTC
MEAN_ELEMENT_THEORY = SGP/SGP4

EPOCH          = 2025-12-21T06:39:12.672864
MEAN_MOTION    = 15.45866140
ECCENTRICITY   = .01109897
INCLINATION    = 35.6080
RA_OF_ASC_NODE = 325.3743
ARG_OF_PERICENTER = 256.0139
MEAN_ANOMALY   = 102.8231

EPHEMERIS_TYPE = 0
CLASSIFICATION_TYPE = U
NORAD_CAT_ID   = 20453
ELEMENT_SET_NO = 999
REV_AT_EPOCH   = 91395
BSTAR          = .5744643E-3
MEAN_MOTION_DOT = .36697E-3
MEAN_MOTION_DDOT = 0

CCSDS_OMM_VERS = 2.0
CREATION_DATE  = 
ORIGINATOR     = 

OBJECT_NAME    = COSMOS 2058
OBJECT_ID      = 1990-010A
CENTER_NAME    = EARTH
REF_FRAME      = TEME
TIME_SYSTEM    = UTC
MEAN_ELEMENT_THEORY = SGP/SGP4

EPOCH          = 2025-12-21T20:00:08.631072
MEAN_MOTION    = 15.10554016
ECCENTRICITY   = .0009131
INCLINATION    = 82.4703
RA_OF_ASC_NODE = 124.0862
ARG_OF_PERICENTER = 237.0733
MEAN_ANOMALY   = 122.9619

EPHEMERIS_TYPE = 0
CLASSIFICATION_TYPE = U
NORAD_CAT_ID   = 20465
ELEMENT_SET_NO = 999
REV_AT_EPOCH   = 93048
BSTAR          = .26102E-3
MEAN_MOTION_DOT = .4336E-4
MEAN_MOTION_DDOT = 0

CCSDS_OMM_VERS = 2.0
CREATION_DATE  = 
ORIGINATOR     = 

OBJECT_NAME    = SL-14 R/B
OBJECT_ID      = 1990-010B
CENTER_NAME    = EARTH
REF_FRAME      = TEME
TIME_SYSTEM    = UTC
MEAN_ELEMENT_THEORY = SGP/SGP4

EPOCH          = 2025-12-21T17:11:39.830208
MEAN_MOTION    = 14.83478988
ECCENTRICITY   = .001939
INCLINATION    = 82.5020
RA_OF_ASC_NODE = 340.6157
ARG_OF_PERICENTER = 192.3015
MEAN_ANOMALY   = 167.7730

EPHEMERIS_TYPE = 0
CLASSIFICATION_TYPE = U
NORAD_CAT_ID   = 20466
ELEMENT_SET_NO = 999
REV_AT_EPOCH   = 91692
BSTAR          = .43886E-4
MEAN_MOTION_DOT = .386E-5
MEAN_MOTION_DDOT = 0

CCSDS_OMM_VERS = 2.0
CREATION_DATE  = 
ORIGINATOR     = 

OBJECT_NAME    = SL-14 R/B
OBJECT_ID      = 1990-018B
CENTER_NAME    = EARTH
REF_FRAME      = TEME
TIME_SYSTEM    = UTC
MEAN_ELEMENT_THEORY = SGP/SGP4

EPOCH          = 2025-12-21T19:03:45.590688
MEAN_MOTION    = 14.82055339
ECCENTRICITY   = .0016213
INCLINATION    = 82.5217
RA_OF_ASC_NODE = 295.9018
ARG_OF_PERICENTER = 354.1666
MEAN_ANOMALY   = 5.9357

EPHEMERIS_TYPE = 0
CLASSIFICATION_TYPE = U
NORAD_CAT_ID   = 20511
ELEMENT_SET_NO = 999
REV_AT_EPOCH   = 91104
BSTAR          = .50675E-4
MEAN_MOTION_DOT = .427E-5
MEAN_MOTION_DDOT = 0

CCSDS_OMM_VERS = 2.0
CREATION_DATE  = 
ORIGINATOR     = 

OBJECT_NAME    = HST
OBJECT_ID      = 1990-037B
CENTER_NAME    = EARTH
REF_FRAME      = TEME
TIME_SYSTEM    = UTC
MEAN_ELEMENT_THEORY = SGP/SGP4

EPOCH          = 2025-12-21T19:18:44.701056
MEAN_MOTION    = 15.28159845
ECCENTRICITY   = .0002207
INCLINATION    = 28.4659
RA_OF_ASC_NODE = 210.7834
ARG_OF_PERICENTER = 349.1425
MEAN_ANOMALY   = 10.9122

EPHEMERIS_TYPE = 0
CLASSIFICATION_TYPE = U
NORAD_CAT_ID   = 20580
ELEMENT_SET_NO = 999
REV_AT_EPOCH   = 76138
BSTAR          = .17909E-3
MEAN_MOTION_DOT = .5282E-4
MEAN_MOTION_DDOT = 0

CCSDS_OMM_VERS = 2.0
CREATION_DATE  = 
ORIGINATOR     = 

OBJECT_NAME    = SL-16 R/B
OBJECT_ID      = 1990-046B
CENTER_NAME    = EARTH
REF_FRAME      = TEME
TIME_SYSTEM    = UTC
MEAN_ELEMENT_THEORY = SGP/SGP4

EPOCH          = 2025-12-21T17:22:20.436960
MEAN_MOTION    = 14.14998422
ECCENTRICITY   = .0012072
INCLINATION    = 70.9993
RA_OF_ASC_NODE = 101.6548
ARG_OF_PERICENTER = 57.4695
MEAN_ANOMALY   = 302.7592

EPHEMERIS_TYPE = 0
CLASSIFICATION_TYPE = U
NORAD_CAT_ID   = 20625
ELEMENT_SET_NO = 999
REV_AT_EPOCH   = 83736
BSTAR          = -.10282E-3
MEAN_MOTION_DOT = -.247E-5
MEAN_MOTION_DDOT = 0

CCSDS_OMM_VERS = 2.0
CREATION_DATE  = 
ORIGINATOR     = 

OBJECT_NAME    = COSMOS 2084
OBJECT_ID      = 1990-055A
CENTER_NAME    = EARTH
REF_FRAME      = TEME
TIME_SYSTEM    = UTC
MEAN_ELEMENT_THEORY = SGP/SGP4

EPOCH          = 2025-12-21T19:16:50.164032
MEAN_MOTION    = 15.05067988
ECCENTRICITY   = .003025
INCLINATION    = 62.7894
RA_OF_ASC_NODE = 241.1094
ARG_OF_PERICENTER = 175.9077
MEAN_ANOMALY   = 184.2277

EPHEMERIS_TYPE = 0
CLASSIFICATION_TYPE = U
NORAD_CAT_ID   = 20663
ELEMENT_SET_NO = 999
REV_AT_EPOCH   = 92459
BSTAR          = .15744E-3
MEAN_MOTION_DOT = .2065E-4
MEAN_MOTION_DDOT = 0

CCSDS_OMM_VERS = 2.0
CREATION_DATE  = 
ORIGINATOR     = 

OBJECT_NAME    = SL-6 R/B(2)
OBJECT_ID      = 1990-055D
CENTER_NAME    = EARTH
REF_FRAME      = TEME
TIME_SYSTEM    = UTC
MEAN_ELEMENT_THEORY = SGP/SGP4

EPOCH          = 2025-12-21T19:33:40.581792
MEAN_MOTION    = 15.03112133
ECCENTRICITY   = .0013704
INCLINATION    = 62.7811
RA_OF_ASC_NODE = 158.5780
ARG_OF_PERICENTER = 315.0265
MEAN_ANOMALY   = 44.9724

EPHEMERIS_TYPE = 0
CLASSIFICATION_TYPE = U
NORAD_CAT_ID   = 20666
ELEMENT_SET_NO = 999
REV_AT_EPOCH   = 92648
BSTAR          = .13998E-3
MEAN_MOTION_DOT = .1703E-4
MEAN_MOTION_DDOT = 0

CCSDS_OMM_VERS = 2.0
CREATION_DATE  = 
ORIGINATOR     = 

OBJECT_NAME    = SL-8 R/B
OBJECT_ID      = 1990-078B
CENTER_NAME    = EARTH
REF_FRAME      = TEME
TIME_SYSTEM    = UTC
MEAN_ELEMENT_THEORY = SGP/SGP4

EPOCH          = 2025-12-21T14:51:00.254016
MEAN_MOTION    = 14.86253330
ECCENTRICITY   = .0370603
INCLINATION    = 82.9056
RA_OF_ASC_NODE = 321.3596
ARG_OF_PERICENTER = 276.0122
MEAN_ANOMALY   = 79.8987

EPHEMERIS_TYPE = 0
CLASSIFICATION_TYPE = U
NORAD_CAT_ID   = 20775
ELEMENT_SET_NO = 999
REV_AT_EPOCH   = 79769
BSTAR          = .46478E-3
MEAN_MOTION_DOT = .15038E-3
MEAN_MOTION_DDOT = 0

CCSDS_OMM_VERS = 2.0
CREATION_DATE  = 
ORIGINATOR     = 

OBJECT_NAME    = SL-8 R/B
OBJECT_ID      = 1991-006B
CENTER_NAME    = EARTH
REF_FRAME      = TEME
TIME_SYSTEM    = UTC
MEAN_ELEMENT_THEORY = SGP/SGP4

EPOCH          = 2025-12-21T18:12:55.344096
MEAN_MOTION    = 13.77491718
ECCENTRICITY   = .0021195
INCLINATION    = 82.9418
RA_OF_ASC_NODE = 228.0042
ARG_OF_PERICENTER = 252.9869
MEAN_ANOMALY   = 174.0796

EPHEMERIS_TYPE = 0
CLASSIFICATION_TYPE = U
NORAD_CAT_ID   = 21088
ELEMENT_SET_NO = 999
REV_AT_EPOCH   = 75334
BSTAR          = .10134E-3
MEAN_MOTION_DOT = .116E-5
MEAN_MOTION_DDOT = 0

CCSDS_OMM_VERS = 2.0
CREATION_DATE  = 
ORIGINATOR     = 

OBJECT_NAME    = OKEAN-3
OBJECT_ID      = 1991-039A
CENTER_NAME    = EARTH
REF_FRAME      = TEME
TIME_SYSTEM    = UTC
MEAN_ELEMENT_THEORY = SGP/SGP4

EPOCH          = 2025-12-21T14:18:55.771776
MEAN_MOTION    = 15.04172614
ECCENTRICITY   = .00135274
INCLINATION    = 82.5173
RA_OF_ASC_NODE = 52.4754
ARG_OF_PERICENTER = 232.1029
MEAN_ANOMALY   = 127.8975

EPHEMERIS_TYPE = 0
CLASSIFICATION_TYPE = U
NORAD_CAT_ID   = 21397
ELEMENT_SET_NO = 999
REV_AT_EPOCH   = 85329
BSTAR          = .15032883E-3
MEAN_MOTION_DOT = .2117E-4
MEAN_MOTION_DDOT = 0

CCSDS_OMM_VERS = 2.0
CREATION_DATE  = 
ORIGINATOR     = 

OBJECT_NAME    = COSMOS 2151
OBJECT_ID      = 1991-042A
CENTER_NAME    = EARTH
REF_FRAME      = TEME
TIME_SYSTEM    = UTC
MEAN_ELEMENT_THEORY = SGP/SGP4

EPOCH          = 2025-12-21T19:56:20.071104
MEAN_MOTION    = 14.99718229
ECCENTRICITY   = .0011815
INCLINATION    = 82.4963
RA_OF_ASC_NODE = 158.7420
ARG_OF_PERICENTER = 328.0420
MEAN_ANOMALY   = 32.0086

EPHEMERIS_TYPE = 0
CLASSIFICATION_TYPE = U
NORAD_CAT_ID   = 21422
ELEMENT_SET_NO = 999
REV_AT_EPOCH   = 85152
BSTAR          = .11664E-3
MEAN_MOTION_DOT = .1468E-4
MEAN_MOTION_DDOT = 0

